[{"OBJECT_NAME":"STARLINK-5605","OBJECT_ID":"2023-014W","EPOCH":"2026-03-09T23:25:49.964736","MEAN_MOTION":14.98331267,"ECCENTRICITY":0.00033621,"INCLINATION":69.9996,"RA_OF_ASC_NODE":63.9281,"ARG_OF_PERICENTER":265.8295,"MEAN_ANOMALY":94.248,"EPHEMERIS_TYPE":0,"CLASSIFICATION_TYPE":"U","NORAD_CAT_ID":55411,"ELEMENT_SET_NO":999,"REV_AT_EPOCH":17209,"BSTAR":0.0001445441,"MEAN_MOTION_DOT":1.632e-5,"MEAN_MOTION_DDOT":0},{"OBJECT_NAME":"UNKNOWN","OBJECT_ID":"","EPOCH":"2026-03-08T21:02:08.847456","MEAN_MOTION":13.4538816,"ECCENTRICITY":0.071264,"INCLINATION":65.8806,"RA_OF_ASC_NODE":228.1422,"ARG_OF_PERICENTER":39.6357,"MEAN_ANOMALY":325.4608,"EPHEMERIS_TYPE":0,"CLASSIFICATION_TYPE":"U","NORAD_CAT_ID":81366,"ELEMENT_SET_NO":999,"REV_AT_EPOCH":7754,"BSTAR":0.00029991,"MEAN_MOTION_DOT":7.73e-6,"MEAN_MOTION_DDOT":0}]
